OBJECT_NAME,OBJECT_ID,EPOCH,MEAN_MOTION,ECCENTRICITY,INCLINATION,RA_OF_ASC_NODE,ARG_OF_PERICENTER,MEAN_ANOMALY,EPHEMERIS_TYPE,CLASSIFICATION_TYPE,NORAD_CAT_ID,ELEMENT_SET_NO,REV_AT_EPOCH,BSTAR,MEAN_MOTION_DOT,MEAN_MOTION_DDOT
STARLINK-37802,2026-119Y,2026-06-08T04:00:05.000256,15.81382091,.000103,97.2832,184.5288,87.9709,68.5541,0,U,69318,999,260,-.48499E-2,-.864383E-2,0
STARLINK-37803,2026-119Z,2026-06-08T04:00:05.000256,15.81713990,.0001359,97.2833,184.5307,65.8576,94.2093,0,U,69319,999,255,-.71144E-2,-.1257055E-1,0
GUOWANG TEST OBJECT A,2026-120A,2026-06-07T11:06:12.288672,15.38803685,.0009599,54.9967,71.5399,294.3963,65.6063,0,U,69320,999,119,.24096E-3,.9002E-4,0
GUOWANG TEST OBJECT B,2026-120B,2026-06-04T06:41:24.658368,15.39121370,.00091004,55.0006,85.8667,296.4175,63.5919,0,U,69321,999,70,.6938966E-3,.27005E-3,0
GUOWANG TEST OBJECT C,2026-120C,2026-06-07T00:06:59.203296,15.39521743,.0009555,54.9981,73.5721,307.3825,52.6333,0,U,69322,999,112,.45417E-3,.17755E-3,0
GUOWANG TEST OBJECT D,2026-120D,2026-06-04T15:59:40.712352,15.39704502,.00080029,55.0029,84.1123,301.7889,58.2360,0,U,69323,999,76,.80800046E-3,.32137E-3,0
QIANFAN-163,2026-121A,2026-06-07T22:57:09.256896,13.60351207,.0019199,89.0165,301.4494,214.2600,145.7319,0,U,69325,999,90,.26983E-4,.32E-6,0
QIANFAN-164,2026-121B,2026-06-07T22:56:05.490240,13.60504536,.0018581,89.0162,301.4490,215.5743,144.4176,0,U,69326,999,90,.17023E-3,.14E-5,0
SZ-22 MODULE,2025-272C,2026-06-07T21:26:14.951904,15.59849035,.000771,41.4812,18.5944,10.7698,349.3304,0,U,69328,999,187,.26543E-3,.21699E-3,0
